start=new Date('%Y-%m-27T00:00:00.000Z').valueOf();
sats=[{"RCS_SIZE":"LARGE","MEAN_ELEMENT_THEORY":"SGP4","MEAN_MOTION_DOT":"0.00001099","REV_AT_EPOCH":"1472","CENTER_NAME":"EARTH","FILE":"3101032","BSTAR":"0.00009267700000","REF_FRAME":"TEME","EPHEMERIS_TYPE":"0","EPOCH":"2021-08-21T18:25:30.811872","OBJECT_TYPE":"PAYLOAD","SEMIMAJOR_AXIS":"6925.354","NORAD_CAT_ID":"48583","ELEMENT_SET_NO":"999","ECCENTRICITY":"0.00014820","LAUNCH_DATE":"2021-05-15","SITE":"AFETR","DECAY_DATE":null,"TLE_LINE2":"2 48583  53.0576  37.7791 0001482 119.7385 240.3751 15.06398327 14729","ARG_OF_PERICENTER":"119.7385","CLASSIFICATION_TYPE":"U","TIME_SYSTEM":"UTC","PERIAPSIS":"546.192","INCLINATION":"53.0576","MEAN_MOTION":"15.06398327","OBJECT_NAME":"STARLINK-2237","OBJECT_ID":"2021-041AG","GP_ID":"183215461","APOAPSIS":"548.245","PERIOD":"95.592","RA_OF_ASC_NODE":"37.7791","TLE_LINE1":"1 48583U 21041AG  21233.76771773  .00001099  00000-0  92677-4 0  9996","MEAN_MOTION_DDOT":"0.0000000000000","MEAN_ANOMALY":"240.3751","COUNTRY_CODE":"US"},{"OBJECT_ID":"2021-041AH","APOAPSIS":"548.413","PERIOD":"95.594","GP_ID":"183215375","MEAN_MOTION_DDOT":"0.0000000000000","MEAN_ANOMALY":"120.0733","COUNTRY_CODE":"US","RA_OF_ASC_NODE":"37.1063","TLE_LINE1":"1 48584U 21041AH  21233.91668981  .00044920  00000-0  30179-2 0  9997","CLASSIFICATION_TYPE":"U","TIME_SYSTEM":"UTC","MEAN_MOTION":"15.06369228","OBJECT_NAME":"STARLINK-2238","INCLINATION":"53.0538","PERIAPSIS":"546.203","ELEMENT_SET_NO":"999","NORAD_CAT_ID":"48584","SEMIMAJOR_AXIS":"6925.443","SITE":"AFETR","ECCENTRICITY":"0.00015960","LAUNCH_DATE":"2021-05-15","ARG_OF_PERICENTER":"108.3934","TLE_LINE2":"2 48584  53.0538  37.1063 0001596 108.3934 120.0733 15.06369228  3599","DECAY_DATE":null,"CENTER_NAME":"EARTH","FILE":"3101032","MEAN_ELEMENT_THEORY":"SGP4","RCS_SIZE":"LARGE","REV_AT_EPOCH":"359","MEAN_MOTION_DOT":"0.00044920","EPHEMERIS_TYPE":"0","OBJECT_TYPE":"PAYLOAD","EPOCH":"2021-08-21T22:00:01.999584","BSTAR":"0.00301790000000","REF_FRAME":"TEME"},{"ECCENTRICITY":"0.00014530","LAUNCH_DATE":"2021-05-15","SITE":"AFETR","NORAD_CAT_ID":"48585","SEMIMAJOR_AXIS":"6925.426","ELEMENT_SET_NO":"999","DECAY_DATE":null,"TLE_LINE2":"2 48585  53.0551  37.1118 0001453 100.8844  67.5601 15.06374619  3594","ARG_OF_PERICENTER":"100.8844","MEAN_MOTION_DOT":"0.00043957","REV_AT_EPOCH":"359","RCS_SIZE":"LARGE","MEAN_ELEMENT_THEORY":"SGP4","FILE":"3101032","CENTER_NAME":"EARTH","REF_FRAME":"TEME","BSTAR":"0.00295360000000","EPOCH":"2021-08-21T22:00:01.999584","OBJECT_TYPE":"PAYLOAD","EPHEMERIS_TYPE":"0","GP_ID":"183215533","PERIOD":"95.594","APOAPSIS":"548.298","OBJECT_ID":"2021-041AJ","TLE_LINE1":"1 48585U 21041AJ  21233.91668981  .00043957  00000-0  29536-2 0  9992","RA_OF_ASC_NODE":"37.1118","COUNTRY_CODE":"US","MEAN_MOTION_DDOT":"0.0000000000000","MEAN_ANOMALY":"67.5601","TIME_SYSTEM":"UTC","CLASSIFICATION_TYPE":"U","PERIAPSIS":"546.285","INCLINATION":"53.0551","OBJECT_NAME":"STARLINK-2240","MEAN_MOTION":"15.06374619"},{"EPHEMERIS_TYPE":"0","EPOCH":"2021-08-21T22:00:01.999584","OBJECT_TYPE":"PAYLOAD","BSTAR":"0.00298840000000","REF_FRAME":"TEME","CENTER_NAME":"EARTH","FILE":"3101032","RCS_SIZE":"LARGE","MEAN_ELEMENT_THEORY":"SGP4","MEAN_MOTION_DOT":"0.00044484","REV_AT_EPOCH":"359","TLE_LINE2":"2 48586  53.0549  37.1130 0001641 104.0259 104.4211 15.06376100  3596","ARG_OF_PERICENTER":"104.0259","DECAY_DATE":null,"SEMIMAJOR_AXIS":"6925.422","NORAD_CAT_ID":"48586","ELEMENT_SET_NO":"999","LAUNCH_DATE":"2021-05-15","ECCENTRICITY":"0.00016410","SITE":"AFETR","MEAN_MOTION":"15.06376100","OBJECT_NAME":"STARLINK-2241","PERIAPSIS":"546.150","INCLINATION":"53.0549","CLASSIFICATION_TYPE":"U","TIME_SYSTEM":"UTC","MEAN_MOTION_DDOT":"0.0000000000000","MEAN_ANOMALY":"104.4211","COUNTRY_CODE":"US","RA_OF_ASC_NODE":"37.1130","TLE_LINE1":"1 48586U 21041AK  21233.91668981  .00044484  00000-0  29884-2 0  9995","OBJECT_ID":"2021-041AK","GP_ID":"183215644","PERIOD":"95.594","APOAPSIS":"548.423"},{"ELEMENT_SET_NO":"999","SEMIMAJOR_AXIS":"6925.437","NORAD_CAT_ID":"48587","SITE":"AFETR","ECCENTRICITY":"0.00014200","LAUNCH_DATE":"2021-05-15","ARG_OF_PERICENTER":"98.5505","TLE_LINE2":"2 48587  53.0540  37.1082 0001420  98.5505  75.0373 15.06371281  3597","DECAY_DATE":null,"CENTER_NAME":"EARTH","FILE":"3101032","MEAN_ELEMENT_THEORY":"SGP4","RCS_SIZE":"LARGE","REV_AT_EPOCH":"359","MEAN_MOTION_DOT":"0.00044063","EPHEMERIS_TYPE":"0","OBJECT_TYPE":"PAYLOAD","EPOCH":"2021-08-21T22:00:01.999584","BSTAR":"0.00296090000000","REF_FRAME":"TEME","OBJECT_ID":"2021-041AL","PERIOD":"95.594","APOAPSIS":"548.285","GP_ID":"183215816","MEAN_MOTION_DDOT":"0.0000000000000","MEAN_ANOMALY":"75.0373","COUNTRY_CODE":"US","RA_OF_ASC_NODE":"37.1082","TLE_LINE1":"1 48587U 21041AL  21233.91668981  .00044063  00000-0  29609-2 0  9994","CLASSIFICATION_TYPE":"U","TIME_SYSTEM":"UTC","MEAN_MOTION":"15.06371281","OBJECT_NAME":"STARLINK-2242","INCLINATION":"53.0540","PERIAPSIS":"546.318"},{"COUNTRY_CODE":"US","MEAN_MOTION_DDOT":"0.0000000000000","MEAN_ANOMALY":"241.7987","TLE_LINE1":"1 48588U 21041AM  21233.86078851 -.00000591  00000-0 -20776-4 0  9998","RA_OF_ASC_NODE":"27.3732","PERIOD":"95.592","APOAPSIS":"548.515","GP_ID":"183215730","OBJECT_ID":"2021-041AM","OBJECT_NAME":"STARLINK-2244","MEAN_MOTION":"15.06398056","INCLINATION":"53.0570","PERIAPSIS":"545.924","TIME_SYSTEM":"UTC","CLASSIFICATION_TYPE":"U","ARG_OF_PERICENTER":"118.3191","TLE_LINE2":"2 48588  53.0570  27.3732 0001870 118.3191 241.7987 15.06398056 14870","DECAY_DATE":null,"SITE":"AFETR","LAUNCH_DATE":"2021-05-15","ECCENTRICITY":"0.00018700","ELEMENT_SET_NO":"999","NORAD_CAT_ID":"48588","SEMIMAJOR_AXIS":"6925.355","OBJECT_TYPE":"PAYLOAD","EPOCH":"2021-08-21T20:39:32.127264","EPHEMERIS_TYPE":"0","REF_FRAME":"TEME","BSTAR":"-0.00002077600000","FILE":"3101032","CENTER_NAME":"EARTH","REV_AT_EPOCH":"1487","MEAN_MOTION_DOT":"-0.00000591","MEAN_ELEMENT_THEORY":"SGP4","RCS_SIZE":"LARGE"},{"INCLINATION":"53.0578","PERIAPSIS":"545.944","OBJECT_NAME":"STARLINK-2245","MEAN_MOTION":"15.06393202","TIME_SYSTEM":"UTC","CLASSIFICATION_TYPE":"U","TLE_LINE1":"1 48589U 21041AN  21233.85710692 -.00000532  00000-0 -16816-4 0  9999","RA_OF_ASC_NODE":"27.3894","COUNTRY_CODE":"US","MEAN_MOTION_DDOT":"0.0000000000000","MEAN_ANOMALY":"221.1639","PERIOD":"95.593","APOAPSIS":"548.525","GP_ID":"183215889","OBJECT_ID":"2021-041AN","REF_FRAME":"TEME","BSTAR":"-0.00001681600000","OBJECT_TYPE":"PAYLOAD","EPOCH":"2021-08-21T20:34:14.037888","EPHEMERIS_TYPE":"0","REV_AT_EPOCH":"1487","MEAN_MOTION_DOT":"-0.00000532","MEAN_ELEMENT_THEORY":"SGP4","RCS_SIZE":"LARGE","FILE":"3101032","CENTER_NAME":"EARTH","DECAY_DATE":null,"ARG_OF_PERICENTER":"138.9491","TLE_LINE2":"2 48589  53.0578  27.3894 0001863 138.9491 221.1639 15.06393202 14875","SITE":"AFETR","LAUNCH_DATE":"2021-05-15","ECCENTRICITY":"0.00018630","ELEMENT_SET_NO":"999","NORAD_CAT_ID":"48589","SEMIMAJOR_AXIS":"6925.369"},{"RCS_SIZE":"LARGE","MEAN_ELEMENT_THEORY":"SGP4","MEAN_MOTION_DOT":"0.00044629","REV_AT_EPOCH":"359","CENTER_NAME":"EARTH","FILE":"3101032","BSTAR":"0.00299850000000","REF_FRAME":"TEME","EPHEMERIS_TYPE":"0","EPOCH":"2021-08-21T22:00:01.999584","OBJECT_TYPE":"PAYLOAD","NORAD_CAT_ID":"48590","SEMIMAJOR_AXIS":"6925.439","ELEMENT_SET_NO":"999","ECCENTRICITY":"0.00015350","LAUNCH_DATE":"2021-05-15","SITE":"AFETR","DECAY_DATE":null,"TLE_LINE2":"2 48590  53.0550  37.1098 0001535 109.4577  79.0077 15.06370485  3597","ARG_OF_PERICENTER":"109.4577","CLASSIFICATION_TYPE":"U","TIME_SYSTEM":"UTC","PERIAPSIS":"546.241","INCLINATION":"53.0550","MEAN_MOTION":"15.06370485","OBJECT_NAME":"STARLINK-2246","OBJECT_ID":"2021-041AP","GP_ID":"183215291","APOAPSIS":"548.367","PERIOD":"95.594","RA_OF_ASC_NODE":"37.1098","TLE_LINE1":"1 48590U 21041AP  21233.91668981  .00044629  00000-0  29985-2 0  9993","MEAN_ANOMALY":"79.0077","MEAN_MOTION_DDOT":"0.0000000000000","COUNTRY_CODE":"US"},{"BSTAR":"-0.00003804000000","REF_FRAME":"TEME","EPHEMERIS_TYPE":"0","EPOCH":"2021-08-21T20:23:36.648672","OBJECT_TYPE":"PAYLOAD","RCS_SIZE":"LARGE","MEAN_ELEMENT_THEORY":"SGP4","MEAN_MOTION_DOT":"-0.00000848","REV_AT_EPOCH":"1577","CENTER_NAME":"EARTH","FILE":"3101032","DECAY_DATE":null,"TLE_LINE2":"2 48591  53.0588  27.4177 0001681 136.2249 223.8873 15.06399059 15779","ARG_OF_PERICENTER":"136.2249","NORAD_CAT_ID":"48591","SEMIMAJOR_AXIS":"6925.351","ELEMENT_SET_NO":"999","ECCENTRICITY":"0.00016810","LAUNCH_DATE":"2021-05-15","SITE":"AFETR","PERIAPSIS":"546.052","INCLINATION":"53.0588","MEAN_MOTION":"15.06399059","OBJECT_NAME":"STARLINK-2248","CLASSIFICATION_TYPE":"U","TIME_SYSTEM":"UTC","RA_OF_ASC_NODE":"27.4177","TLE_LINE1":"1 48591U 21041AQ  21233.84972973 -.00000848  00000-0 -38040-4 0  9996","MEAN_MOTION_DDOT":"0.0000000000000","MEAN_ANOMALY":"223.8873","COUNTRY_CODE":"US","OBJECT_ID":"2021-041AQ","GP_ID":"183215462","APOAPSIS":"548.381","PERIOD":"95.592"},{"TLE_LINE2":"2 48592  53.0568  37.4159 0001805 119.2657 240.8513 15.06391657 14732","ARG_OF_PERICENTER":"119.2657","DECAY_DATE":null,"SEMIMAJOR_AXIS":"6925.374","NORAD_CAT_ID":"48592","ELEMENT_SET_NO":"999","LAUNCH_DATE":"2021-05-15","ECCENTRICITY":"0.00018050","SITE":"AFETR","EPHEMERIS_TYPE":"0","EPOCH":"2021-08-21T20:22:17.403456","OBJECT_TYPE":"PAYLOAD","BSTAR":"-0.00004362500000","REF_FRAME":"TEME","CENTER_NAME":"EARTH","FILE":"3101032","RCS_SIZE":"MEDIUM","MEAN_ELEMENT_THEORY":"SGP4","MEAN_MOTION_DOT":"-0.00000931","REV_AT_EPOCH":"1473","MEAN_MOTION_DDOT":"0.0000000000000","MEAN_ANOMALY":"240.8513","COUNTRY_CODE":"US","RA_OF_ASC_NODE":"37.4159","TLE_LINE1":"1 48592U 21041AR  21233.84881254 -.00000931  00000-0 -43625-4 0  9996","OBJECT_ID":"2021-041AR","GP_ID":"183215376","PERIOD":"95.593","APOAPSIS":"548.489","MEAN_MOTION":"15.06391657","OBJECT_NAME":"STARLINK-2249","PERIAPSIS":"545.989","INCLINATION":"53.0568","CLASSIFICATION_TYPE":"U","TIME_SYSTEM":"UTC"}];
